{
  "type": "FeatureCollection",
  "name": "clip_boundary",
  "crs": {
    "type": "name",
    "properties": {
      "name": "urn:ogc:def:crs:OGC:1.3:CRS84"
    }
  },
  "features": [
    {
      "type": "Feature",
      "properties": {
        "name": "AOI_01"
      },
      "geometry": {
        "type": "Polygon",
        "coordinates": [
          [
            [110.0000, -7.0000],
            [110.0100, -7.0000],
            [110.0100, -7.0100],
            [110.0000, -7.0100],
            [110.0000, -7.0000]
          ]
        ]
      }
    },
    {
      "type": "Feature",
      "properties": {
        "name": "AOI_02"
      },
      "geometry": {
        "type": "Polygon",
        "coordinates": [
          [
            [110.0100, -7.0000],
            [110.0200, -7.0000],
            [110.0200, -7.0100],
            [110.0100, -7.0100],
            [110.0100, -7.0000]
          ]
        ]
      }
    }
  ]
}

